NORAD_CAT_ID,OBJECT_NAME,OBJECT_TYPE,EPOCH,MEAN_MOTION,ECCENTRICITY,INCLINATION,RA_OF_ASC_NODE,ARG_OF_PERICENTER,MEAN_ANOMALY,BSTAR,MEAN_MOTION_DOT,MEAN_MOTION_DDOT,TLE_LINE0,TLE_LINE1,TLE_LINE2,SEMIMAJOR_AXIS,PERIOD,APOGEE,PERIGEE,DECAYED
53626.0,STARLINK-4554,PAYLOAD,2023-03-01 22:55:08,15.08837521,0.0001049,53.2165,148.6202,84.1568,275.9544,-0.00011908,-2.182e-05,0.0,0 STARLINK-4554,1 53626U 22104AQ  23060.95495427 -.00002182  00000-0 -11908-3 0  9994,2 53626  53.2165 148.6202 0001049  84.1568 275.9544 15.08837521 28449,6917.888,95.438,540.479,539.027,0.0
53626.0,STARLINK-4554,PAYLOAD,2023-03-02 14:48:58,15.08846012,0.0001071,53.2159,145.6469,83.5631,276.5483,9.4291e-05,1.213e-05,0.0,0 STARLINK-4554,1 53626U 22104AQ  23061.61734375  .00001213  00000-0  94291-4 0  9995,2 53626  53.2159 145.6469 0001071  83.5631 276.5483 15.08846012 28548,6917.862,95.437,540.468,538.986,0.0
53626.0,STARLINK-4554,PAYLOAD,2023-03-03 05:07:27,15.08832626,8.59e-05,53.2155,142.971,82.387,277.722,0.00017185,2.448e-05,0.0,0 STARLINK-4554,1 53626U 22104AQ  23062.21350894  .00002448  00000-0  17185-3 0  9999,2 53626  53.2155 142.9710 0000859  82.3870 277.7220 15.08832626 28636,6917.903,95.438,540.362,539.174,0.0
53626.0,STARLINK-4554,PAYLOAD,2023-03-03 11:28:58,15.0885453,0.0001099,53.2166,141.7806,113.8957,246.215,0.00020374,2.957e-05,0.0,0 STARLINK-4554,1 53626U 22104AQ  23062.47845367  .00002957  00000-0  20374-3 0  9990,2 53626  53.2166 141.7806 0001099 113.8957 246.2150 15.08854530 28679,6917.836,95.437,540.461,538.941,0.0
53626.0,STARLINK-4554,PAYLOAD,2023-03-03 14:39:44,15.08860934,9.6e-05,53.2161,141.185,89.9709,270.1393,0.00024387,3.598e-05,0.0,0 STARLINK-4554,1 53626U 22104AQ  23062.61092759  .00003598  00000-0  24387-3 0  9995,2 53626  53.2161 141.1850 0000960  89.9709 270.1393 15.08860934 29380,6917.816,95.436,540.346,539.017,0.0
53626.0,STARLINK-4554,PAYLOAD,2023-03-04 04:58:14,15.08838788,0.0001288,53.2157,138.5112,86.7758,273.3381,2.651e-05,1.34e-06,0.0,0 STARLINK-4554,1 53626U 22104AQ  23063.20710689  .00000134  00000-0  26510-4 0  9994,2 53626  53.2157 138.5112 0001288  86.7758 273.3381 15.08838788 28786,6917.884,95.438,540.64,538.858,0.0
53626.0,STARLINK-4554,PAYLOAD,2023-03-04 11:19:46,15.08846982,0.0001357,53.2157,137.3209,92.8455,267.2692,-2.0446e-05,-6.13e-06,0.0,0 STARLINK-4554,1 53626U 22104AQ  23063.47206237 -.00000613  00000-0 -20446-4 0  9998,2 53626  53.2157 137.3209 0001357  92.8455 267.2692 15.08846982 29513,6917.859,95.437,540.663,538.785,0.0
53626.0,STARLINK-4554,PAYLOAD,2023-03-04 14:30:31,15.08856612,0.0001154,53.2148,136.7243,88.1051,272.0073,2.3193e-05,8.1e-07,0.0,0 STARLINK-4554,1 53626U 22104AQ  23063.60453315  .00000081  00000-0  23193-4 0  9993,2 53626  53.2148 136.7243 0001154  88.1051 272.0073 15.08856612 28842,6917.83,95.437,540.493,538.896,0.0
53626.0,STARLINK-4554,PAYLOAD,2023-03-05 07:59:49,15.08820459,0.0001287,53.2156,133.4518,117.2927,242.8196,-0.00040198,-6.676e-05,0.0,0 STARLINK-4554,1 53626U 22104AQ  23064.33321701 -.00006676  00000-0 -40198-3 0  9998,2 53626  53.2156 133.4518 0001287 117.2927 242.8196 15.08820459 28956,6917.94,95.439,540.695,538.915,0.0
53626.0,STARLINK-4554,PAYLOAD,2023-03-05 09:35:13,15.08821175,0.0001374,53.2157,133.1542,115.9592,244.1542,-0.00039374,-6.546e-05,0.0,0 STARLINK-4554,1 53626U 22104AQ  23064.39945725 -.00006546  00000-0 -39374-3 0  9992,2 53626  53.2157 133.1542 0001374 115.9592 244.1542 15.08821175 29655,6917.938,95.439,540.753,538.852,0.0
53626.0,STARLINK-4554,PAYLOAD,2023-03-06 04:39:48,15.08835978,0.0001428,53.2148,129.5901,86.3081,273.8074,3.2839e-05,2.35e-06,0.0,0 STARLINK-4554,1 53626U 22104AQ  23065.19431608  .00000235  00000-0  32839-4 0  9998,2 53626  53.2148 129.5901 0001428  86.3081 273.8074 15.08835978 29089,6917.893,95.438,540.746,538.77,0.0
53626.0,STARLINK-4554,PAYLOAD,2023-03-06 11:01:18,15.08872978,0.0001554,53.2153,128.3956,115.5678,244.5475,0.00021242,3.097e-05,0.0,0 STARLINK-4554,1 53626U 22104AQ  23065.45924409  .00003097  00000-0  21242-3 0  9997,2 53626  53.2153 128.3956 0001554 115.5678 244.5475 15.08872978 29125,6917.78,95.435,540.72,538.57,0.0
53626.0,STARLINK-4554,PAYLOAD,2023-03-06 14:12:03,15.0888328,0.000164,53.2151,127.7997,129.0027,231.1112,0.0002941,4.401e-05,0.0,0 STARLINK-4554,1 53626U 22104AQ  23065.59171026  .00004401  00000-0  29410-3 0  9996,2 53626  53.2151 127.7997 0001640 129.0027 231.1112 15.08883280 29145,6917.748,95.435,540.748,538.479,0.0
53626.0,STARLINK-4554,PAYLOAD,2023-03-06 20:33:39,15.08847906,0.0001933,53.216,126.6146,88.4105,271.7109,-4.831e-05,-1.057e-05,0.0,0 STARLINK-4554,1 53626U 22104AQ  23065.85670433 -.00001057  00000-0 -48310-4 0  9998,2 53626  53.2160 126.6146 0001933  88.4105 271.7109 15.08847906 29870,6917.856,95.437,541.058,538.384,0.0
53626.0,STARLINK-4554,PAYLOAD,2023-03-07 04:30:35,15.08827558,0.0001855,53.2167,125.1293,130.7696,229.3457,0.00014081,1.953e-05,0.0,0 STARLINK-4554,1 53626U 22104AQ  23066.18791263  .00001953  00000-0  14081-3 0  9990,2 53626  53.2167 125.1293 0001855 130.7696 229.3457 15.08827558 29239,6917.918,95.438,541.067,538.5,0.0
53626.0,STARLINK-4554,PAYLOAD,2023-03-07 14:02:53,15.08843047,0.0001406,53.2157,123.342,132.2219,227.8892,0.00022764,3.337e-05,0.0,0 STARLINK-4554,1 53626U 22104AQ  23066.58533962  .00003337  00000-0  22764-3 0  9999,2 53626  53.2157 123.3420 0001406 132.2219 227.8892 15.08843047 29293,6917.871,95.437,540.709,538.763,0.0
53626.0,STARLINK-4554,PAYLOAD,2023-03-07 20:24:27,15.08837943,0.000185,53.2154,122.1532,79.1023,281.0177,-4.4953e-05,-1.003e-05,0.0,0 STARLINK-4554,1 53626U 22104AQ  23066.85031571 -.00001003  00000-0 -44953-4 0  9993,2 53626  53.2154 122.1532 0001850  79.1023 281.0177 15.08837943 30025,6917.887,95.438,541.031,538.472,0.0
53626.0,STARLINK-4554,PAYLOAD,2023-03-08 13:53:42,15.08836748,0.0001543,53.2151,118.881,87.3777,272.7392,-0.00030969,-5.213e-05,0.0,0 STARLINK-4554,1 53626U 22104AQ  23067.57896757 -.00005213  00000-0 -30969-3 0  9996,2 53626  53.2151 118.8810 0001543  87.3777 272.7392 15.08836748 29441,6917.89,95.438,540.823,538.688,0.0
53626.0,STARLINK-4554,PAYLOAD,2023-03-08 20:15:14,15.08852925,0.0001325,53.2161,117.692,92.2401,267.8742,-0.00035491,-5.934e-05,0.0,0 STARLINK-4554,1 53626U 22104AQ  23067.84391714 -.00005934  00000-0 -35491-3 0  9994,2 53626  53.2161 117.6920 0001325  92.2401 267.8742 15.08852925 29481,6917.841,95.437,540.622,538.789,0.0
53626.0,STARLINK-4554,PAYLOAD,2023-03-09 12:09:03,15.08859077,9.4e-05,53.2157,114.7181,121.7958,238.3125,0.00010966,1.459e-05,0.0,0 STARLINK-4554,1 53626U 22104AQ  23068.50629549  .00001459  00000-0  10966-3 0  9994,2 53626  53.2157 114.7181 0000940 121.7958 238.3125 15.08859077 30272,6917.822,95.436,540.337,539.037,0.0
53626.0,STARLINK-4554,PAYLOAD,2023-03-10 10:24:29,15.08841156,0.0001907,53.2159,110.5547,55.5574,304.5598,0.00012193,1.653e-05,0.0,0 STARLINK-4554,1 53626U 22104AQ  23069.43367218  .00001653  00000-0  12193-3 0  9999,2 53626  53.2159 110.5547 0001907  55.5574 304.5598 15.08841156 29723,6917.877,95.437,541.061,538.423,0.0
53626.0,STARLINK-4554,PAYLOAD,2023-03-10 11:59:51,15.08849993,0.0001247,53.2165,110.256,83.5308,276.5826,0.00022571,3.307e-05,0.0,0 STARLINK-4554,1 53626U 22104AQ  23069.49990068  .00003307  00000-0  22571-3 0  9999,2 53626  53.2165 110.2560 0001247  83.5308 276.5826 15.08849993 29735,6917.85,95.437,540.578,538.852,0.0
53626.0,STARLINK-4554,PAYLOAD,2023-03-10 19:56:49,15.08828086,0.0001174,53.2165,108.7693,96.5577,263.5549,2.3241e-05,8.2e-07,0.0,0 STARLINK-4554,1 53626U 22104AQ  23069.83112456  .00000082  00000-0  23241-4 0  9997,2 53626  53.2165 108.7693 0001174  96.5577 263.5549 15.08828086 30476,6917.917,95.438,540.594,538.97,0.0
53626.0,STARLINK-4554,PAYLOAD,2023-03-11 11:50:40,15.0883991,0.0001452,53.2161,105.7924,108.2135,251.9016,-0.00017929,-3.14e-05,0.0,0 STARLINK-4554,1 53626U 22104AQ  23070.49352303 -.00003140  00000-0 -17929-3 0  9993,2 53626  53.2161 105.7924 0001452 108.2135 251.9016 15.08839910 29887,6917.881,95.438,540.75,538.741,0.0
53626.0,STARLINK-4554,PAYLOAD,2023-03-12 05:19:54,15.08845844,0.0001503,53.2161,102.5218,113.5835,246.5315,-0.00011558,-2.127e-05,0.0,0 STARLINK-4554,1 53626U 22104AQ  23071.22215963 -.00002127  00000-0 -11558-3 0  9991,2 53626  53.2161 102.5218 0001503 113.5835 246.5315 15.08845844 29998,6917.863,95.437,540.767,538.688,0.0
53626.0,STARLINK-4554,PAYLOAD,2023-03-12 08:30:40,15.08847274,0.0001574,53.2164,101.9279,106.3845,253.7321,-8.768e-05,-1.683e-05,0.0,0 STARLINK-4554,1 53626U 22104AQ  23071.35463777 -.00001683  00000-0 -87680-4 0  9999,2 53626  53.2164 101.9279 0001574 106.3845 253.7321 15.08847274 30707,6917.858,95.437,540.812,538.634,0.0
53626.0,STARLINK-4554,PAYLOAD,2023-03-12 22:49:08,15.08837135,0.0001426,53.2146,99.2533,105.5137,254.6012,0.00010077,1.316e-05,0.0,0 STARLINK-4554,1 53626U 22104AQ  23071.95079605  .00001316  00000-0  10077-3 0  9994,2 53626  53.2146  99.2533 0001426 105.5137 254.6012 15.08837135 30791,6917.889,95.438,540.741,538.768,0.0
53626.0,STARLINK-4554,PAYLOAD,2023-03-14 05:01:29,15.08837312,0.0001439,53.2149,93.6061,106.497,253.6181,-6.4204e-05,-1.31e-05,0.0,0 STARLINK-4554,1 53626U 22104AQ  23073.20936503 -.00001310  00000-0 -64204-4 0  9991,2 53626  53.2149  93.6061 0001439 106.4970 253.6181 15.08837312 30295,6917.889,95.438,540.749,538.758,0.0
53626.0,STARLINK-4554,PAYLOAD,2023-03-14 08:12:15,15.08838631,0.000141,53.2154,93.012,105.4575,254.6573,-5.3674e-05,-1.142e-05,0.0,0 STARLINK-4554,1 53626U 22104AQ  23073.34184393 -.00001142  00000-0 -53674-4 0  9990,2 53626  53.2154  93.0120 0001410 105.4575 254.6573 15.08838631 31001,6917.885,95.438,540.725,538.774,0.0
53626.0,STARLINK-4554,PAYLOAD,2023-03-14 17:44:33,15.08840617,0.0001352,53.2154,91.2277,104.6908,255.4234,-1.6088e-05,-5.44e-06,0.0,0 STARLINK-4554,1 53626U 22104AQ  23073.73928088 -.00000544  00000-0 -16088-4 0  9993,2 53626  53.2154  91.2277 0001352 104.6908 255.4234 15.08840617 31066,6917.879,95.438,540.679,538.808,0.0
